{"fetched_at":"2026-03-29T16:36:15Z","count":15609,"tles":[{"name":"STARLINK-4008","line1":"1 52622U 22052AA  26087.71224115  .00000312  00000+0  37705-4 0  9995","line2":"2 52622  53.2172 198.7245 0001279  92.1401 267.9737 15.08844585213657","category":"Starlink"}]}